{
  "type": "FeatureCollection",
  "features": [
    {
      "type": "Feature",
      "properties": {
        "norad_id": 39773,
        "name": "EUTELSAT 3B",
        "group": "eutelsat",
        "lat": 0.04224308439101341,
        "lon": 22.400816741300613,
        "alt_km": 35802.06862939682,
        "timestamp": "2025-12-16T19:34:23.936739+00:00",
        "meta_object_name": "EUTELSAT 3B",
        "meta_object_id": "2014-030A",
        "meta_epoch": "2025-12-15T21:00:38.918016",
        "meta_mean_motion": 1.00271593,
        "meta_eccentricity": 0.00043344,
        "meta_inclination": 0.0603,
        "meta_ra_of_asc_node": 356.292,
        "meta_arg_of_pericenter": 235.069,
        "meta_mean_anomaly": 171.6636,
        "meta_ephemeris_type": 0,
        "meta_classification_type": "U",
        "meta_norad_cat_id": 39773,
        "meta_element_set_no": 999,
        "meta_rev_at_epoch": 4222,
        "meta_bstar": 0,
        "meta_mean_motion_dot": 4.2e-07,
        "meta_mean_motion_ddot": 0,
        "tle_line1": "1 39773U 14030A   25349.87545044  .00000042  00000+0  00000+0 0  9991",
        "tle_line2": "2 39773   0.0603 356.2920 0004334 235.0690 171.6636  1.00271593 42224"
      },
      "geometry": {
        "type": "Point",
        "coordinates": [
          22.400816741300613,
          0.04224308439101341
        ]
      }
    },
    {
      "type": "Feature",
      "properties": {
        "norad_id": 40425,
        "name": "EUTELSAT 115 WEST B",
        "group": "eutelsat",
        "lat": -0.015248762708014897,
        "lon": -95.61509630361876,
        "alt_km": 35785.89000137865,
        "timestamp": "2025-12-16T19:34:23.936751+00:00",
        "meta_object_name": "EUTELSAT 115 WEST B",
        "meta_object_id": "2015-010B",
        "meta_epoch": "2025-12-15T08:27:38.617056",
        "meta_mean_motion": 1.00270198,
        "meta_eccentricity": 1.61e-05,
        "meta_inclination": 0.0426,
        "meta_ra_of_asc_node": 166.1328,
        "meta_arg_of_pericenter": 67.8489,
        "meta_mean_anomaly": 222.2908,
        "meta_ephemeris_type": 0,
        "meta_classification_type": "U",
        "meta_norad_cat_id": 40425,
        "meta_element_set_no": 999,
        "meta_rev_at_epoch": 3955,
        "meta_bstar": 0,
        "meta_mean_motion_dot": -3e-08,
        "meta_mean_motion_ddot": 0,
        "tle_line1": "1 40425U 15010B   25349.35253029 -.00000003  00000+0  00000+0 0  9996",
        "tle_line2": "2 40425   0.0426 166.1328 0000161  67.8489 222.2908  1.00270198 39551"
      },
      "geometry": {
        "type": "Point",
        "coordinates": [
          -95.61509630361876,
          -0.015248762708014897
        ]
      }
    },
    {
      "type": "Feature",
      "properties": {
        "norad_id": 40875,
        "name": "EUTELSAT 8 WEST B",
        "group": "eutelsat",
        "lat": 0.03871662135672084,
        "lon": 11.34957421072385,
        "alt_km": 35790.675576245,
        "timestamp": "2025-12-16T19:34:23.936764+00:00",
        "meta_object_name": "EUTELSAT 8 WEST B",
        "meta_object_id": "2015-039B",
        "meta_epoch": "2025-12-15T21:54:39.749184",
        "meta_mean_motion": 1.00271688,
        "meta_eccentricity": 0.00042733,
        "meta_inclination": 0.0644,
        "meta_ra_of_asc_node": 347.4174,
        "meta_arg_of_pericenter": 279.3067,
        "meta_mean_anomaly": 138.7664,
        "meta_ephemeris_type": 0,
        "meta_classification_type": "U",
        "meta_norad_cat_id": 40875,
        "meta_element_set_no": 999,
        "meta_rev_at_epoch": 3781,
        "meta_bstar": 0,
        "meta_mean_motion_dot": -4.3e-07,
        "meta_mean_motion_ddot": 0,
        "tle_line1": "1 40875U 15039B   25349.91296006 -.00000043  00000+0  00000+0 0  9994",
        "tle_line2": "2 40875   0.0644 347.4174 0004273 279.3067 138.7664  1.00271688 37817"
      },
      "geometry": {
        "type": "Point",
        "coordinates": [
          11.34957421072385,
          0.03871662135672084
        ]
      }
    },
    {
      "type": "Feature",
      "properties": {
        "norad_id": 41310,
        "name": "EUTELSAT 9B",
        "group": "eutelsat",
        "lat": -0.014739986507135107,
        "lon": 28.32430936038903,
        "alt_km": 35794.47561175391,
        "timestamp": "2025-12-16T19:34:23.936776+00:00",
        "meta_object_name": "EUTELSAT 9B",
        "meta_object_id": "2016-005A",
        "meta_epoch": "2025-12-15T21:00:38.918016",
        "meta_mean_motion": 1.00271297,
        "meta_eccentricity": 0.00045228,
        "meta_inclination": 0.0525,
        "meta_ra_of_asc_node": 68.3642,
        "meta_arg_of_pericenter": 204.2583,
        "meta_mean_anomaly": 136.3036,
        "meta_ephemeris_type": 0,
        "meta_classification_type": "U",
        "meta_norad_cat_id": 41310,
        "meta_element_set_no": 999,
        "meta_rev_at_epoch": 3627,
        "meta_bstar": 0,
        "meta_mean_motion_dot": 8.4e-07,
        "meta_mean_motion_ddot": 0,
        "tle_line1": "1 41310U 16005A   25349.87545044  .00000084  00000+0  00000+0 0  9991",
        "tle_line2": "2 41310   0.0525  68.3642 0004522 204.2583 136.3036  1.00271297 36278"
      },
      "geometry": {
        "type": "Point",
        "coordinates": [
          28.32430936038903,
          -0.014739986507135107
        ]
      }
    },
    {
      "type": "Feature",
      "properties": {
        "norad_id": 41382,
        "name": "EUTELSAT 65 WEST A",
        "group": "eutelsat",
        "lat": -0.017020799912251226,
        "lon": -45.90138421689893,
        "alt_km": 35778.80766332434,
        "timestamp": "2025-12-16T19:34:23.936791+00:00",
        "meta_object_name": "EUTELSAT 65 WEST A",
        "meta_object_id": "2016-014A",
        "meta_epoch": "2025-12-15T20:42:14.371776",
        "meta_mean_motion": 1.00270699,
        "meta_eccentricity": 0.00023712,
        "meta_inclination": 0.0595,
        "meta_ra_of_asc_node": 322.2052,
        "meta_arg_of_pericenter": 311.94,
        "meta_mean_anomaly": 55.9731,
        "meta_ephemeris_type": 0,
        "meta_classification_type": "U",
        "meta_norad_cat_id": 41382,
        "meta_element_set_no": 999,
        "meta_rev_at_epoch": 3569,
        "meta_bstar": 0,
        "meta_mean_motion_dot": -2.54e-06,
        "meta_mean_motion_ddot": 0,
        "tle_line1": "1 41382U 16014A   25349.86266634 -.00000254  00000+0  00000+0 0  9994",
        "tle_line2": "2 41382   0.0595 322.2052 0002371 311.9400  55.9731  1.00270699 35693"
      },
      "geometry": {
        "type": "Point",
        "coordinates": [
          -45.90138421689893,
          -0.017020799912251226
        ]
      }
    },
    {
      "type": "Feature",
      "properties": {
        "norad_id": 41589,
        "name": "EUTELSAT 117 WEST B",
        "group": "eutelsat",
        "lat": 0.012645361279665639,
        "lon": -97.71787340069208,
        "alt_km": 35786.51115850751,
        "timestamp": "2025-12-16T19:34:23.936806+00:00",
        "meta_object_name": "EUTELSAT 117 WEST B",
        "meta_object_id": "2016-038B",
        "meta_epoch": "2025-12-14T23:08:05.366400",
        "meta_mean_motion": 1.00269355,
        "meta_eccentricity": 1.202e-05,
        "meta_inclination": 0.0103,
        "meta_ra_of_asc_node": 155.4943,
        "meta_arg_of_pericenter": 36.5325,
        "meta_mean_anomaly": 121.8783,
        "meta_ephemeris_type": 0,
        "meta_classification_type": "U",
        "meta_norad_cat_id": 41589,
        "meta_element_set_no": 999,
        "meta_rev_at_epoch": 3481,
        "meta_bstar": 0,
        "meta_mean_motion_dot": 9e-08,
        "meta_mean_motion_ddot": 0,
        "tle_line1": "1 41589U 16038B   25348.96395100  .00000009  00000+0  00000+0 0  9997",
        "tle_line2": "2 41589   0.0103 155.4943 0000120  36.5325 121.8783  1.00269355 34818"
      },
      "geometry": {
        "type": "Point",
        "coordinates": [
          -97.71787340069208,
          0.012645361279665639
        ]
      }
    },
    {
      "type": "Feature",
      "properties": {
        "norad_id": 42741,
        "name": "EUTELSAT 172B",
        "group": "eutelsat",
        "lat": 0.0042650106565230855,
        "lon": -168.71571236618888,
        "alt_km": 35785.971375087305,
        "timestamp": "2025-12-16T19:34:23.936818+00:00",
        "meta_object_name": "EUTELSAT 172B",
        "meta_object_id": "2017-029B",
        "meta_epoch": "2025-12-15T21:03:14.673024",
        "meta_mean_motion": 1.00273363,
        "meta_eccentricity": 1.014e-05,
        "meta_inclination": 0.046,
        "meta_ra_of_asc_node": 150.6556,
        "meta_arg_of_pericenter": 192.3692,
        "meta_mean_anomaly": 229.5527,
        "meta_ephemeris_type": 0,
        "meta_classification_type": "U",
        "meta_norad_cat_id": 42741,
        "meta_element_set_no": 999,
        "meta_rev_at_epoch": 3189,
        "meta_bstar": 0,
        "meta_mean_motion_dot": 1.7e-07,
        "meta_mean_motion_ddot": 0,
        "tle_line1": "1 42741U 17029B   25349.87725316  .00000017  00000+0  00000+0 0  9995",
        "tle_line2": "2 42741   0.0460 150.6556 0000101 192.3692 229.5527  1.00273363 31890"
      },
      "geometry": {
        "type": "Point",
        "coordinates": [
          -168.71571236618888,
          0.0042650106565230855
        ]
      }
    }
  ]
}